GLOBALSTAR M069         
1 31573U 07020C   26182.83964307 -.00000072  00000+0  18529-3 0  9994
2 31573  52.0002 210.6543 0001993 180.6013 350.1149 12.23471718880591
GLOBALSTAR M072         
1 31574U 07020D   26182.97046258 -.00000067  00000+0  23801-3 0  9999
2 31574  51.9939  60.8887 0001567   7.7457   5.2209 11.91658471876747
GLOBALSTAR M066         
1 32265U 07048C   26182.85028515 -.00000097  00000+0 -20180-4 0  9992
2 32265  51.9600  15.8193 0005663  74.3636 298.7841 12.30387687862030
GLOBALSTAR M079         
1 37188U 10054A   26182.93309958 -.00000082  00000+0  12047-3 0  9999
2 37188  52.0043  63.7816 0001003  54.4683 318.6005 12.62266345724416
GLOBALSTAR M074         
1 37189U 10054B   26182.97923146 -.00000088  00000+0  88318-4 0  9996
2 37189  52.0027  62.9039 0000788  72.7752  30.2078 12.62261827725021
GLOBALSTAR M076         
1 37190U 10054C   26182.38717179 -.00000091  00000+0  73088-4 0  9992
2 37190  52.0036  64.9108 0001002  68.1653 103.0062 12.62261941724669
GLOBALSTAR M077         
1 37191U 10054D   26182.15150802 -.00000094  00000+0 -29194-3 0  9994
2 37191  51.9934 143.8512 0002505 198.2303 175.3685 11.67547961722773
GLOBALSTAR M075         
1 37192U 10054E   26182.93357560 -.00000093  00000+0  62282-4 0  9995
2 37192  51.9945 105.2933 0000502  42.1937  33.3494 12.62267513723804
GLOBALSTAR M073         
1 37193U 10054F   26182.95345738 -.00000088  00000+0  90024-4 0  9991
2 37193  52.0077  19.3447 0001102  75.7743  88.5640 12.62266822725799
GLOBALSTAR M083         
1 37739U 11033A   26182.80818249 -.00000079  00000+0  13866-3 0  9999
2 37739  51.9877 327.9956 0000945  89.4379  75.7875 12.62263793694792
GLOBALSTAR M088         
1 37740U 11033B   26182.86278041 -.00000078  00000+0  14295-3 0  9993
2 37740  52.0195 234.2940 0000354 147.5976  24.3785 12.62269178690345
GLOBALSTAR M091         
1 37741U 11033C   26182.79657985 -.00000106  00000+0 -14593-4 0  9999
2 37741  51.9966 197.4380 0000071 342.2921 189.5041 12.62264193691126
GLOBALSTAR M085         
1 37742U 11033D   26182.91048674 -.00000116  00000+0 -68294-4 0  9991
2 37742  52.0105 148.3949 0000460   9.6271  20.0834 12.62264203691653
GLOBALSTAR M081         
1 37743U 11033E   26182.85434110 -.00000116  00000+0 -69572-4 0  9999
2 37743  51.9936 150.9854 0000359  37.8691 336.3305 12.62265300691794
GLOBALSTAR M089         
1 37744U 11033F   26182.81929862 -.00000100  00000+0  23559-4 0  9996
2 37744  51.9926 105.2484 0000557  79.5021 316.3719 12.62267404692634
GLOBALSTAR M084         
1 38040U 11080A   26182.86066792 -.00000097  00000+0  36698-4 0  9990
2 38040  52.0026 332.6112 0001069 109.8437  54.0291 12.62267678670616
GLOBALSTAR M080         
1 38041U 11080B   26182.71989447 -.00000099  00000+0  26063-4 0  9993
2 38041  52.0082 334.7631 0000418  77.9461 296.0034 12.62265518670723
GLOBALSTAR M082         
1 38042U 11080C   26182.68539700 -.00000081  00000+0  12485-3 0  9996
2 38042  52.0083 290.3713 0000405 110.1173  36.7666 12.62263806671425
GLOBALSTAR M092         
1 38043U 11080D   26182.97673444 -.00000081  00000+0  12701-3 0  9994
2 38043  52.0101  19.8817 0000846  84.1941  66.4095 12.62267363669917
GLOBALSTAR M090         
1 38044U 11080E   26182.71200113 -.00000108  00000+0 -25741-4 0  9996
2 38044  52.0133 284.2508 0000544 104.9665  41.8852 12.62252643671542
GLOBALSTAR M086         
1 38045U 11080F   26182.48152366 -.00000065  00000+0  21700-3 0  9998
2 38045  51.9902 284.8583 0001680  91.1828 350.0829 12.62287426671461
GLOBALSTAR M097         
1 39072U 13005A   26182.73280367 -.00000096  00000+0  44317-4 0  9993
2 39072  52.0022 199.0583 0000148  50.9081 309.1799 12.62271285618745
GLOBALSTAR M093         
1 39073U 13005B   26182.70597850 -.00000108  00000+0 -22605-4 0  9990
2 39073  52.0074 192.4916 0000320  32.9784 327.1103 12.62266204618690
GLOBALSTAR M094         
1 39074U 13005C   26182.94338988 -.00000107  00000+0 -15216-4 0  9991
2 39074  51.9956 105.8707 0000755  36.5232 323.5686 12.62268420620336
GLOBALSTAR M096         
1 39075U 13005D   26182.87772292 -.00000117  00000+0 -75281-4 0  9993
2 39075  52.0048 154.8832 0000397  12.9637 347.1240 12.62265695619240
GLOBALSTAR M078         
1 39076U 13005E   26182.53406687 -.00000029  00000+0  41990-3 0  9999
2 39076  51.9859 239.9216 0000534 292.4665  67.6145 12.62260182617825
GLOBALSTAR M095         
1 39077U 13005F   26182.87751429 -.00000075  00000+0  15889-3 0  9993
2 39077  52.0063 236.5002 0000102   5.2794 354.8074 12.62263857617728
GLOBALSTAR M087         
1 52888U 22064A   26182.89068487 -.00000100  00000+0  22680-4 0  9997
2 52888  52.0011  17.6889 0000928  66.2951 293.8013 12.62269284192997
