OBJECT_NAME,OBJECT_ID,EPOCH,MEAN_MOTION,ECCENTRICITY,INCLINATION,RA_OF_ASC_NODE,ARG_OF_PERICENTER,MEAN_ANOMALY,EPHEMERIS_TYPE,CLASSIFICATION_TYPE,NORAD_CAT_ID,ELEMENT_SET_NO,REV_AT_EPOCH,BSTAR,MEAN_MOTION_DOT,MEAN_MOTION_DDOT
GLOBALSTAR M069,2007-020C,2026-07-01T20:09:05.161248,12.23471718,.00019932,52.0002,210.6543,180.6013,350.1149,0,U,31573,999,88059,.18528931E-3,-.72E-6,0
GLOBALSTAR M072,2007-020D,2026-07-01T23:17:27.966912,11.91658471,.00015672,51.9939,60.8887,7.7457,5.2209,0,U,31574,999,87674,.23800581E-3,-.67E-6,0
GLOBALSTAR M066,2007-048C,2026-07-01T20:24:24.636960,12.30387687,.00056632,51.9600,15.8193,74.3636,298.7841,0,U,32265,999,86203,-.2018011E-4,-.97E-6,0
GLOBALSTAR M079,2010-054A,2026-07-01T22:23:39.803712,12.62266345,.0001003,52.0043,63.7816,54.4683,318.6005,0,U,37188,999,72441,.12047467E-3,-.82E-6,0
GLOBALSTAR M074,2010-054B,2026-07-01T23:30:05.598144,12.62261827,.00007885,52.0027,62.9039,72.7752,30.2078,0,U,37189,999,72502,.88317604E-4,-.88E-6,0
GLOBALSTAR M076,2010-054C,2026-07-01T09:17:31.642656,12.62261941,.00010024,52.0036,64.9108,68.1653,103.0062,0,U,37190,999,72466,.73088057E-4,-.91E-6,0
GLOBALSTAR M077,2010-054D,2026-07-01T03:38:10.292928,11.67547961,.00025053,51.9934,143.8512,198.2303,175.3685,0,U,37191,999,72277,-.29193758E-3,-.94E-6,0
GLOBALSTAR M075,2010-054E,2026-07-01T22:24:20.931840,12.62267513,.00005029,51.9945,105.2933,42.1937,33.3494,0,U,37192,999,72380,.62281606E-4,-.93E-6,0
GLOBALSTAR M073,2010-054F,2026-07-01T22:52:58.717632,12.62266822,.00011029,52.0077,19.3447,75.7743,88.5640,0,U,37193,999,72579,.900241E-4,-.88E-6,0
GLOBALSTAR M083,2011-033A,2026-07-01T19:23:46.967136,12.62263793,.00009458,51.9877,327.9956,89.4379,75.7875,0,U,37739,999,69479,.13866114E-3,-.79E-6,0
GLOBALSTAR M088,2011-033B,2026-07-01T20:42:24.227424,12.62269178,.00003548,52.0195,234.2940,147.5976,24.3785,0,U,37740,999,69034,.14295451E-3,-.78E-6,0
GLOBALSTAR M091,2011-033C,2026-07-01T19:07:04.499040,12.62264193,.00000719,51.9966,197.4380,342.2921,189.5041,0,U,37741,999,69112,-.14593055E-4,-.106E-5,0
GLOBALSTAR M085,2011-033D,2026-07-01T21:51:06.054336,12.62264203,.00004605,52.0105,148.3949,9.6271,20.0834,0,U,37742,999,69165,-.6829444E-4,-.116E-5,0
GLOBALSTAR M081,2011-033E,2026-07-01T20:30:15.071040,12.62265300,.00003594,51.9936,150.9854,37.8691,336.3305,0,U,37743,999,69179,-.6957161E-4,-.116E-5,0
GLOBALSTAR M089,2011-033F,2026-07-01T19:39:47.400768,12.62267404,.00005572,51.9926,105.2484,79.5021,316.3719,0,U,37744,999,69263,.23558657E-4,-.1E-5,0
GLOBALSTAR M084,2011-080A,2026-07-01T20:39:21.708288,12.62267678,.00010696,52.0026,332.6112,109.8437,54.0291,0,U,38040,999,67061,.36697723E-4,-.97E-6,0
GLOBALSTAR M080,2011-080B,2026-07-01T17:16:38.882208,12.62265518,.00004183,52.0082,334.7631,77.9461,296.0034,0,U,38041,999,67072,.26062816E-4,-.99E-6,0
GLOBALSTAR M082,2011-080C,2026-07-01T16:26:58.300800,12.62263806,.00004059,52.0083,290.3713,110.1173,36.7666,0,U,38042,999,67142,.1248506E-3,-.81E-6,0
GLOBALSTAR M092,2011-080D,2026-07-01T23:26:29.855616,12.62267363,.00008469,52.0101,19.8817,84.1941,66.4095,0,U,38043,999,66991,.12701182E-3,-.81E-6,0
GLOBALSTAR M090,2011-080E,2026-07-01T17:05:16.897632,12.62252643,.0000544,52.0133,284.2508,104.9665,41.8852,0,U,38044,999,67154,-.2574128E-4,-.108E-5,0
GLOBALSTAR M086,2011-080F,2026-07-01T11:33:23.644224,12.62287426,.00016801,51.9902,284.8583,91.1828,350.0829,0,U,38045,999,67146,.21699851E-3,-.65E-6,0
GLOBALSTAR M097,2013-005A,2026-07-01T17:35:14.237088,12.62271285,.00001484,52.0022,199.0583,50.9081,309.1799,0,U,39072,999,61874,.44317069E-4,-.96E-6,0
GLOBALSTAR M093,2013-005B,2026-07-01T16:56:36.542400,12.62266204,.00003206,52.0074,192.4916,32.9784,327.1103,0,U,39073,999,61869,-.22604965E-4,-.108E-5,0
GLOBALSTAR M094,2013-005C,2026-07-01T22:38:28.885632,12.62268420,.00007555,51.9956,105.8707,36.5232,323.5686,0,U,39074,999,62033,-.15215561E-4,-.107E-5,0
GLOBALSTAR M096,2013-005D,2026-07-01T21:03:55.260288,12.62265695,.00003974,52.0048,154.8832,12.9637,347.1240,0,U,39075,999,61924,-.7528126E-4,-.117E-5,0
GLOBALSTAR M078,2013-005E,2026-07-01T12:49:03.377568,12.62260182,.00005341,51.9859,239.9216,292.4665,67.6145,0,U,39076,999,61782,.41990036E-3,-.29E-6,0
GLOBALSTAR M095,2013-005F,2026-07-01T21:03:37.234656,12.62263857,.00001029,52.0063,236.5002,5.2794,354.8074,0,U,39077,999,61772,.15889157E-3,-.75E-6,0
GLOBALSTAR M087,2022-064A,2026-07-01T21:22:35.172768,12.62269284,.00009286,52.0011,17.6889,66.2951,293.8013,0,U,52888,999,19299,.22679991E-4,-.1E-5,0
